STARLINK-36075          
1 66905U 25283AD  25362.91668981 -.00028397  00000+0 -50441-3 0  9999
2 66905  53.1594 353.6933 0001290  99.2506  30.5782 15.49305931  5033
1998-067XS              
1 66906U 98067XS  25362.19312282  .00034866  00000+0  58581-3 0  9999
2 66906  51.6324  65.7333 0002613 281.7047  78.3649 15.51427236  4016
1998-067XT              
1 66907U 98067XT  25362.88388586  .00090579  00000+0  13882-2 0  9993
2 66907  51.6314  62.0963 0003849 327.1826  32.8925 15.53558854  4124
1998-067XU              
1 66908U 98067XU  25362.88270316  .00077397  00000+0  11893-2 0  9998
2 66908  51.6310  62.0877 0003933 323.7931  36.2792 15.53556067  4122
SILVERSAT               
1 66909U 98067XV  25362.88034630  .00099141  00000+0  14962-2 0  9997
2 66909  51.6305  62.0720 0003938 330.5413  29.5355 15.53938859  4123
1998-067XW              
1 66910U 98067XW  25362.87895263  .00090062  00000+0  13684-2 0  9998
2 66910  51.6305  62.0627 0003591 300.2223  59.8411 15.53800298  4123
1998-067XX              
1 66911U 98067XX  25362.87373182  .00110783  00000+0  16383-2 0  9992
2 66911  51.6302  62.0283 0003332 311.4329  48.6375 15.54443856  4111
1998-067XY              
1 66912U 98067XY  25362.37544862  .00062303  00000+0  99000-3 0  9995
2 66912  51.6317  64.7007 0003839 312.2121  47.8542 15.52721713  4039
2025-284A               
1 66913U 25284A   25357.10748193  .00008748  00000+0  55264-3 0  9992
2 66913  80.4035 116.7336 0013475 259.6514 100.3189 15.08893564  2694
2025-284B               
1 66914U 25284B   25350.28554881  .00008068  00000+0  38445-3 0  9991
2 66914  80.4045 125.2713 0008179 234.9626 125.0834 15.18985981  1668
HULIANWANG DIGUI-105    
1 66915U 25285A   25362.93815231  .00000090  00000+0  15974-3 0  9996
2 66915  50.0058  51.3469 0003912 336.6552  23.4173 14.01015258  3189
HULIANWANG DIGUI-106    
1 66916U 25285B   25361.43773301  .00000055  00000+0  13439-3 0  9997
2 66916  50.0052  57.4085 0004948 327.7035  32.3565 14.01851189  2973
